{"fetched_at":"2026-03-29T02:12:04Z","count":15717,"tles":[{"name":"COSMOS 2457 (733)","line1":"1 36112U 09070B   26085.09286998  .00000040  00000+0  00000+0 0  9993","line2":"2 36112  64.9488  73.6506 0001624 196.4354 160.5699  2.13100904126652","category":"Other"}]}